OBJECT_NAME,OBJECT_ID,EPOCH,MEAN_MOTION,ECCENTRICITY,INCLINATION,RA_OF_ASC_NODE,ARG_OF_PERICENTER,MEAN_ANOMALY,EPHEMERIS_TYPE,CLASSIFICATION_TYPE,NORAD_CAT_ID,ELEMENT_SET_NO,REV_AT_EPOCH,BSTAR,MEAN_MOTION_DOT,MEAN_MOTION_DDOT
STARLINK-37238,2026-117K,2026-06-19T10:32:29.338080,15.82078256,.00026597,53.1561,232.1115,90.0327,270.1001,0,U,69247,999,333,.18261791E-2,.398482E-2,0
STARLINK-37412,2026-117L,2026-06-19T08:56:40.516224,15.82086472,.0001361,53.1563,232.4066,130.5569,229.5573,0,U,69248,999,332,.1165698E-2,.249822E-2,0
STARLINK-37398,2026-117M,2026-06-19T10:36:08.928000,15.81006135,.00007933,53.1568,232.1287,65.3040,294.8065,0,U,69249,999,333,.13818493E-2,.282893E-2,0
STARLINK-37499,2026-117N,2026-06-19T10:25:10.244640,15.82103308,.00016858,53.1565,232.0767,98.8053,261.3162,0,U,69250,999,333,.13260101E-2,.285693E-2,0
STARLINK-37489,2026-117P,2026-06-19T10:22:38.469216,15.82031889,.0001111,53.1570,232.0669,78.6335,281.4813,0,U,69251,999,333,.14552913E-2,.313597E-2,0
STARLINK-37434,2026-117Q,2026-06-19T08:47:23.508384,15.82059084,.00010097,53.1570,232.3615,61.3486,298.7639,0,U,69252,999,332,.14602603E-2,.315127E-2,0
STARLINK-37368,2026-117R,2026-06-19T08:37:40.933920,15.82050377,.0001411,53.1570,232.3157,28.9383,331.1718,0,U,69253,999,332,.16057939E-2,.347784E-2,0
STARLINK-37517,2026-117S,2026-06-19T13:08:41.370720,15.82004086,.00021221,53.1566,231.3561,132.2152,227.9051,0,U,69254,999,335,.1229072E-2,.262836E-2,0
STARLINK-37378,2026-117T,2026-06-19T04:02:23.487360,15.82256142,.0001646,53.1565,233.2564,306.3083,53.7788,0,U,69255,999,329,.20247115E-2,.448152E-2,0
STARLINK-37396,2026-117U,2026-06-19T13:04:41.061216,15.82051171,.00008802,53.1565,231.3339,92.0529,268.0595,0,U,69256,999,335,.50694382E-3,.106265E-2,0
STARLINK-37508,2026-117V,2026-06-19T08:37:04.772928,15.80942114,.00009779,53.1571,232.3102,45.7547,314.3556,0,U,69257,999,332,.15895578E-2,.326214E-2,0
STARLINK-37276,2026-117W,2026-06-19T11:00:20.155968,15.80977472,.00018621,53.1564,231.4926,99.1514,260.9719,0,U,69258,999,334,.16932246E-2,.349026E-2,0
STARLINK-37518,2026-117X,2026-06-19T11:02:10.430880,15.79004231,.00108552,53.1564,231.5034,9.8743,350.2490,0,U,69259,999,334,-.14430822E-1,-.2292148E-1,0
STARLINK-37478,2026-117Y,2026-06-19T08:00:03.113568,15.81936345,.00061619,53.1565,232.1371,330.8967,29.1712,0,U,69260,999,332,.212467E-2,.464493E-2,0
STARLINK-37506,2026-117Z,2026-06-19T00:00:02.000160,15.80847968,.00010378,53.1570,233.8029,76.9287,186.5110,0,U,69261,999,447,.29901484E-3,.5865E-3,0
STARLINK-37503,2026-117AA,2026-06-19T11:01:21.193248,15.81005677,.00023215,53.1565,231.4979,98.3493,261.7793,0,U,69262,999,334,.18279129E-2,.37865E-2,0
STARLINK-37502,2026-117AB,2026-06-19T11:00:36.939168,15.80953452,.00012129,53.1568,231.4950,69.0543,291.0610,0,U,69263,999,334,.84522922E-3,.170077E-2,0
STARLINK-37486,2026-117AC,2026-06-19T10:58:51.515616,15.80947922,.0000927,53.1565,231.4856,78.2184,281.8943,0,U,69264,999,334,.17441583E-2,.359512E-2,0
STARLINK-37435,2026-117AD,2026-06-19T11:01:00.108192,15.80948543,.00010015,53.1566,231.4955,86.9236,273.1901,0,U,69265,999,334,.79997304E-3,.160721E-2,0
STARLINK-37464,2026-117AE,2026-06-19T10:52:16.831776,15.82059089,.00010679,53.1570,231.4536,75.3741,284.7400,0,U,69266,999,334,.16484561E-2,.357604E-2,0
KUIPER-00282,2026-118A,2026-06-19T15:10:34.054176,15.34235642,.00119452,51.8598,41.7967,190.2705,169.8038,0,U,69267,999,435,.39867658E-3,.13082E-3,0
KUIPER-00383,2026-118B,2026-06-19T15:05:58.903008,15.34328799,.00110443,51.8601,41.7767,193.0589,167.0112,0,U,69268,999,435,.4726303E-3,.15628E-3,0
KUIPER-00527,2026-118C,2026-06-19T13:24:26.236800,15.34766627,.0010437,51.8625,42.0596,186.3434,173.7421,0,U,69269,999,434,-.1331845E-5,-.432E-5,0
KUIPER-00562,2026-118D,2026-06-19T12:28:03.893664,15.38695936,.00016497,51.8725,41.8094,127.3104,232.8034,0,U,69270,999,434,.67230469E-3,.25807E-3,0
KUIPER-00570,2026-118E,2026-06-19T13:28:04.929024,15.34656424,.00116234,51.8583,42.0698,193.8977,166.1690,0,U,69271,999,434,.48906711E-3,.16362E-3,0
KUIPER-00572,2026-118F,2026-06-19T12:59:21.273216,15.37054950,.00071143,51.8674,41.9547,179.5685,180.5309,0,U,69272,999,434,.30021405E-3,.10686E-3,0
KUIPER-00581,2026-118G,2026-06-19T13:05:50.023968,15.36687259,.00087672,51.8656,41.9816,183.0610,177.0324,0,U,69273,999,443,.29243401E-3,.10276E-3,0
KUIPER-00584,2026-118H,2026-06-19T15:05:49.373952,15.34349063,.00110994,51.8618,41.7791,196.4329,163.6298,0,U,69274,999,435,-.52988875E-3,-.18269E-3,0
KUIPER-00587,2026-118J,2026-06-19T13:04:47.973216,15.36733478,.00080707,51.8628,41.9738,186.0944,173.9945,0,U,69275,999,434,.29799917E-3,.10494E-3,0
KUIPER-00590,2026-118K,2026-06-19T12:42:12.134304,15.37963938,.00041066,51.8689,41.8791,168.6112,191.4969,0,U,69276,999,434,.34566603E-3,.1274E-3,0
