STARLINK-37238          
1 69247U 26117K   26170.43922845  .00398482  00000+0  18262-2 0  9992
2 69247  53.1561 232.1115 0002659  90.0327 270.1001 15.82078256  3333
STARLINK-37412          
1 69248U 26117L   26170.37269116  .00249822  00000+0  11657-2 0  9995
2 69248  53.1563 232.4066 0001361 130.5569 229.5573 15.82086472  3321
STARLINK-37398          
1 69249U 26117M   26170.44177000  .00282893  00000+0  13818-2 0  9990
2 69249  53.1568 232.1287 0000793  65.3040 294.8065 15.81006135  3335
STARLINK-37499          
1 69250U 26117N   26170.43414635  .00285693  00000+0  13260-2 0  9991
2 69250  53.1565 232.0767 0001685  98.8053 261.3162 15.82103308  3330
STARLINK-37489          
1 69251U 26117P   26170.43238969  .00313597  00000+0  14553-2 0  9997
2 69251  53.1570 232.0669 0001111  78.6335 281.4813 15.82031889  3331
STARLINK-37434          
1 69252U 26117Q   26170.36624431  .00315127  00000+0  14603-2 0  9990
2 69252  53.1570 232.3615 0001009  61.3486 298.7639 15.82059084  3321
STARLINK-37368          
1 69253U 26117R   26170.35950155  .00347784  00000+0  16058-2 0  9995
2 69253  53.1570 232.3157 0001411  28.9383 331.1718 15.82050377  3321
STARLINK-37517          
1 69254U 26117S   26170.54770105  .00262836  00000+0  12291-2 0  9991
2 69254  53.1566 231.3561 0002122 132.2152 227.9051 15.82004086  3359
STARLINK-37378          
1 69255U 26117T   26170.16832740  .00448152  00000+0  20247-2 0  9991
2 69255  53.1565 233.2564 0001646 306.3083  53.7788 15.82256142  3297
STARLINK-37396          
1 69256U 26117U   26170.54491969  .00106265  00000+0  50694-3 0  9994
2 69256  53.1565 231.3339 0000880  92.0529 268.0595 15.82051171  3359
STARLINK-37508          
1 69257U 26117V   26170.35908302  .00326214  00000+0  15896-2 0  9990
2 69257  53.1571 232.3102 0000977  45.7547 314.3556 15.80942114  3321
STARLINK-37276          
1 69258U 26117W   26170.45856662  .00349026  00000+0  16932-2 0  9991
2 69258  53.1564 231.4926 0001862  99.1514 260.9719 15.80977472  3343
STARLINK-37518          
1 69259U 26117X   26170.45984295 -.02292148  00000+0 -14431-1 0  9993
2 69259  53.1564 231.5034 0010855   9.8743 350.2490 15.79004231  3340
STARLINK-37478          
1 69260U 26117Y   26170.33336937  .00464493  00000+0  21247-2 0  9990
2 69260  53.1565 232.1371 0006161 330.8967  29.1712 15.81936345  3324
STARLINK-37506          
1 69261U 26117Z   26170.00002315  .00058650  00000+0  29901-3 0  9995
2 69261  53.1570 233.8029 0001037  76.9287 186.5110 15.80847968  4477
STARLINK-37503          
1 69262U 26117AA  26170.45927307  .00378650  00000+0  18279-2 0  9992
2 69262  53.1565 231.4979 0002321  98.3493 261.7793 15.81005677  3346
STARLINK-37502          
1 69263U 26117AB  26170.45876087  .00170077  00000+0  84523-3 0  9990
2 69263  53.1568 231.4950 0001212  69.0543 291.0610 15.80953452  3344
STARLINK-37486          
1 69264U 26117AC  26170.45754069  .00359512  00000+0  17442-2 0  9994
2 69264  53.1565 231.4856 0000927  78.2184 281.8943 15.80947922  3343
STARLINK-37435          
1 69265U 26117AD  26170.45902903  .00160721  00000+0  79997-3 0  9993
2 69265  53.1566 231.4955 0001001  86.9236 273.1901 15.80948543  3341
STARLINK-37464          
1 69266U 26117AE  26170.45297259  .00357604  00000+0  16485-2 0  9995
2 69266  53.1570 231.4536 0001067  75.3741 284.7400 15.82059089  3349
KUIPER-00282            
1 69267U 26118A   26170.63233859  .00013082  00000+0  39868-3 0  9993
2 69267  51.8598  41.7967 0011945 190.2705 169.8038 15.34235642  4358
KUIPER-00383            
1 69268U 26118B   26170.62915397  .00015628  00000+0  47263-3 0  9993
2 69268  51.8601  41.7767 0011044 193.0589 167.0112 15.34328799  4352
KUIPER-00527            
1 69269U 26118C   26170.55863700 -.00000432  00000+0 -13318-5 0  9991
2 69269  51.8625  42.0596 0010437 186.3434 173.7421 15.34766627  4344
KUIPER-00562            
1 69270U 26118D   26170.51948951  .00025807  00000+0  67230-3 0  9992
2 69270  51.8725  41.8094 0001649 127.3104 232.8034 15.38695936  4346
KUIPER-00570            
1 69271U 26118E   26170.56116816  .00016362  00000+0  48907-3 0  9991
2 69271  51.8583  42.0698 0011623 193.8977 166.1690 15.34656424  4343
KUIPER-00572            
1 69272U 26118F   26170.54121844  .00010686  00000+0  30021-3 0  9998
2 69272  51.8674  41.9547 0007114 179.5685 180.5309 15.37054950  4349
KUIPER-00581            
1 69273U 26118G   26170.54571787  .00010276  00000+0  29243-3 0  9993
2 69273  51.8656  41.9816 0008767 183.0610 177.0324 15.36687259  4433
KUIPER-00584            
1 69274U 26118H   26170.62904368 -.00018269  00000+0 -52989-3 0  9993
2 69274  51.8618  41.7791 0011099 196.4329 163.6298 15.34349063  4357
KUIPER-00587            
1 69275U 26118J   26170.54499969  .00010494  00000+0  29800-3 0  9997
2 69275  51.8628  41.9738 0008070 186.0944 173.9945 15.36733478  4346
KUIPER-00590            
1 69276U 26118K   26170.52930711  .00012740  00000+0  34567-3 0  9993
2 69276  51.8689  41.8791 0004106 168.6112 191.4969 15.37963938  4349
